1 43873U 18109A   18357.64744926  .00000088  00000-0  00000+0 0  9995
2 43873  55.0066 198.4553 5566249 269.9924  29.7382  3.89136492    08
1 43873U 18109A   18357.64745112  .00000088  00000-0  00000+0 0  9993
2 43873  55.0145 198.4679 5565911 269.9907  29.7400  3.89105788    06
1 43873U 18109A   18357.64745282  .00000088  00000-0  00000+0 0  9991
2 43873  55.0097 198.4572 5566873 269.9851  29.7422  3.89172043    02
1 43873U 18109A   18357.69183462  .00000088  00000-0  00000+0 0  9992
2 43873  55.0049 198.4368 5566277 269.9967  91.9277  3.89174632    03
1 43873U 18109A   18358.16132381  .00000086  00000-0  00000+0 0  9997
2 43873  55.0201 198.2815 5566443 270.0822  29.6823  3.89164676    20
1 43873U 18109A   18358.16132928  .00000086  00000-0  00000+0 0  9994
2 43873  55.0195 198.2804 5566342 270.0836  29.6824  3.89159522    28
1 43873U 18109A   18358.67521123  .00000084  00000-0  00000-0 0  9998
2 43873  55.0196 198.0840 5566324 270.1918  29.6215  3.89159585    44
1 43873U 18109A   18358.67521124  .00000084  00000-0  00000-0 0  9999
2 43873  55.0196 198.0840 5566324 270.1918  29.6215  3.89159585    44
1 43873U 18109A   18358.70260951  .00000084  00000-0  00000+0 0  9990
2 43873  55.0191 198.0703 5566300 270.1995  68.0076  3.89160654    47

